{
  "norad_id": 68754,
  "name": "2026-083B",
  "history": [
    {
      "epoch": "2026-04-17T22:59:57.361920Z",
      "apogee_km": 552.9234898512041,
      "perigee_km": 540.844729531258,
      "latitude_deg": 2.0027840160950203e-05,
      "longitude_deg": 62.19690069301982,
      "height_km": 551.0402833006227,
      "semi_major_axis_km": 6925.021109691231,
      "eccentricity": 0.00087211,
      "inclination_deg": 98.2508,
      "raan_deg": 253.2701,
      "arg_perigee_deg": 259.4892,
      "mean_anomaly_deg": 100.5351,
      "mean_motion_rev_day": 15.06506846
    }
  ]
}