2026-083B               
1 68754U 26083B   26107.95830280  .00002214  00000+0  15462-3 0  9999
2 68754  98.2508 253.2701 0008721 259.4892 100.5351 15.06506846   153
